ORBCOMM FM103           
1 40091U 14040F   26014.54085050  .00000330  00000+0  10659-3 0  9992
2 40091  47.0053  99.3584 0001954 198.4486 161.6329 14.58598117594951
ORBCOMM FM114           
1 41179U 15081A   26014.69413273  .00000352  00000+0  11123-3 0  9995
2 41179  47.0063   7.5845 0002813 235.5169 124.5451 14.58619956535344
ORBCOMM FM119           
1 41180U 15081B   26014.75984664  .00000270  00000+0  93747-4 0  9993
2 41180  47.0003 276.6341 0001567 295.3231  64.7492 14.58567831536603
ORBCOMM FM105           
1 41181U 15081C   26014.82651927  .00000116  00000+0  77107-4 0  9996
2 41181  47.0023 301.9721 0001719 213.7063 146.3708 14.45439319531366
ORBCOMM FM110           
1 41182U 15081D   26014.68331095  .00000496  00000+0  14161-3 0  9993
2 41182  47.0034   7.1206 0001549  73.3407 286.7649 14.58666483535214
ORBCOMM FM118           
1 41183U 15081E   26014.99202443  .00000432  00000+0  12827-3 0  9999
2 41183  47.0055   5.9681 0002395  23.5839 336.5156 14.58650425535369
ORBCOMM FM112           
1 41184U 15081F   26014.78913013  .00000339  00000+0  10843-3 0  9991
2 41184  46.9990 275.4495 0001843 240.4158 119.6544 14.58652307536558
ORBCOMM FM113           
1 41185U 15081G   26014.62946636  .00000424  00000+0  12632-3 0  9995
2 41185  47.0008 276.5657 0001637 251.9356 108.1351 14.58651611536513
